1 47540U 21006EA  21270.45016730  .00001452  00000-0  85449-4 0  9993
2 47540  97.4851 329.9657 0012748 104.7151 255.5494 15.13150846 36544
1 47540U 21006EA  21270.58242602  .00001121  00000-0  66779-4 0  9994
2 47540  97.4851 330.0955 0012755 104.3592 255.9056 15.13149368 36568
1 47540U 21006EA  21271.50823389  .00001483  00000-0  87192-4 0  9997
2 47540  97.4850 331.0044 0012765 101.5263 258.7402 15.13153878 36705
1 47540U 21006EA  21271.70662105  .00001477  00000-0  86843-4 0  9991
2 47540  97.4850 331.1991 0012763 100.9213 259.3455 15.13154438 36734
1 47540U 21006EA  21272.43404049  .00001496  00000-0  87908-4 0  9997
2 47540  97.4849 331.9131 0012761  98.7338 261.5339 15.13156516 36843
1 47540U 21006EA  21272.76468541  .00001425  00000-0  83874-4 0  9990
2 47540  97.4849 332.2377 0012759  97.7229 262.5452 15.13157056 36896
1 47540U 21006EA  21273.49210281  .00001535  00000-0  90063-4 0  9997
2 47540  97.4848 332.9517 0012751  95.5624 264.7061 15.13159862 37006
1 47540U 21006EA  21274.15338999  .00001578  00000-0  92511-4 0  9995
2 47540  97.4847 333.6009 0012746  93.5571 266.7118 15.13162320 37101
1 47540U 21006EA  21274.55016192  .00001588  00000-0  93048-4 0  9994
2 47540  97.4847 333.9904 0012752  92.3819 267.8872 15.13163696 37169
1 47540U 21006EA  21274.81467647  .00001534  00000-0  90034-4 0  9991
2 47540  97.4847 334.2500 0012755  91.5792 268.6901 15.13164290 37207
1 47540U 21006EA  21275.21144856  .00001323  00000-0  78138-4 0  9997
2 47540  97.4847 334.6395 0012755  90.4086 269.8607 15.13164254 37269
1 47540U 21006EA  21275.40983426  .00001319  00000-0  77934-4 0  9990
2 47540  97.4847 334.8342 0012759  89.8298 270.4395 15.13164831 37290
1 47540U 21006EA  21275.74047639  .00001432  00000-0  84273-4 0  9994
2 47540  97.4846 335.1588 0012759  88.8223 271.4470 15.13166592 37349
1 47540U 21006EA  21276.40176068  .00001329  00000-0  78485-4 0  9990
2 47540  97.4846 335.8079 0012760  86.8485 273.4206 15.13168141 37443
1 47540U 21006EA  21276.73240263  .00001399  00000-0  82400-4 0  9994
2 47540  97.4845 336.1325 0012756  85.8319 274.4370 15.13169493 37499
1 47540U 21006EA  21276.86465922  .00001448  00000-0  85170-4 0  9991
2 47540  97.4845 336.2623 0012756  85.4202 274.8486 15.13170125 37517
1 47540U 21006EA  21277.59207029  .00001493  00000-0  87671-4 0  9992
2 47540  97.4844 336.9763 0012742  83.2330 277.0351 15.13172565 37629
1 47540U 21006EA  21277.85658328  .00001451  00000-0  85322-4 0  9998
2 47540  97.4843 337.2359 0012738  82.4313 277.8364 15.13173061 37668
1 47540U 21006EA  21278.12109593  .00001436  00000-0  84471-4 0  9991
2 47540  97.4842 337.4955 0012730  81.6175 278.6499 15.13173838 37705
1 47540U 21006EA  21278.45173664  .00001429  00000-0  84069-4 0  9992
2 47540  97.4842 337.8201 0012726  80.6381 279.6288 15.13174796 37752
1 47540U 21006EA  21279.11301728  .00001447  00000-0  85065-4 0  9997
2 47540  97.4840 338.4692 0012699  78.6029 281.6628 15.13176672 37853
1 47540U 21006EA  21279.70816798  .00001708  00000-0  99772-4 0  9990
2 47540  97.4839 339.0533 0012684  76.7883 283.4763 15.13180007 37940
1 47540U 21006EA  21279.90655103  .00001853  00000-0  10792-3 0  9998
2 47540  97.4838 339.2480 0012674  76.1614 284.1027 15.13181441 37974
1 47540U 21006EA  21280.56782857  .00002058  00000-0  11943-3 0  9996
2 47540  97.4837 339.8970 0012643  74.1231 286.1393 15.13184551 38077
1 47540U 21006EA  21280.76621183  .00002175  00000-0  12601-3 0  9994
2 47540  97.4836 340.0921 0012644  73.7769 286.4852 15.13186106 38103
1 47540U 21006EA  21280.89846690  .00002189  00000-0  12680-3 0  9992
2 47540  97.4836 340.2219 0012636  73.3622 286.8996 15.13186806 38122
1 47540U 21006EA  21281.49361557  .00001959  00000-0  11386-3 0  9999
2 47540  97.4835 340.8056 0012601  71.3153 288.9445 15.13187604 38214
1 47540U 21006EA  21281.82425323  .00001771  00000-0  10332-3 0  9990
2 47540  97.4834 341.1302 0012575  70.3161 289.9426 15.13188168 38260
1 47540U 21006EA  21282.08876308  .00001661  00000-0  97117-4 0  9997
2 47540  97.4834 341.3898 0012558  69.4567 290.8010 15.13188892 38301
1 47540U 21006EA  21282.22101820  .00001573  00000-0  92151-4 0  9998
2 47540  97.4834 341.5196 0012552  69.0541 291.2032 15.13189140 38324
1 47540U 21006EA  21282.75003749  .00001388  00000-0  81767-4 0  9992
2 47540  97.4833 342.0388 0012527  67.4934 292.7622 15.13190526 38402
1 47540U 21006EA  21283.14680175  .00001300  00000-0  76799-4 0  9993
2 47540  97.4832 342.4282 0012510  66.2910 293.9633 15.13191516 38462
1 47540U 21006EA  21283.54356588  .00001458  00000-0  85665-4 0  9991
2 47540  97.4832 342.8176 0012497  65.0874 295.1654 15.13193450 38521
1 47540U 21006EA  21283.87420209  .00001478  00000-0  86799-4 0  9990
2 47540  97.4831 343.1421 0012485  64.0694 296.1823 15.13194614 38570
1 47540U 21006EA  21284.40321855  .00001686  00000-0  98500-4 0  9991
2 47540  97.4830 343.6613 0012466  62.4615 297.7882 15.13197700 38651
1 47540U 21006EA  21284.73385579  .00001448  00000-0  85099-4 0  9995
2 47540  97.4830 343.9858 0012451  61.4567 298.7916 15.13196895 38703
1 47540U 21006EA  21285.13061846  .00001468  00000-0  86213-4 0  9999
2 47540  97.4829 344.3752 0012431  60.2278 300.0188 15.13198142 38764
1 47540U 21006EA  21285.59350639  .00001820  00000-0  10604-3 0  9992
2 47540  97.4829 344.8295 0012421  58.8333 301.4114 15.13201762 38830
1 47540U 21006EA  21286.45315696  .00002471  00000-0  14263-3 0  9990
2 47540  97.4826 345.6731 0012359  56.2933 303.9474 15.13205225 38967
1 47540U 21006EA  21286.58541067  .00002335  00000-0  13495-3 0  9992
2 47540  97.4827 345.8028 0012342  55.9024 304.3376 15.13205311 38982
1 47540U 21006EA  21287.11442432  .00002183  00000-0  12642-3 0  9992
2 47540  97.4826 346.3220 0012309  54.2745 305.9629 15.13207239 39065
1 47540U 21006EA  21287.44505750  .00002050  00000-0  11893-3 0  9991
2 47540  97.4827 346.6464 0012292  53.2804 306.9554 15.13208322 39113
1 47540U 21006EA  21287.57731056  .00002082  00000-0  12071-3 0  9999
2 47540  97.4827 346.7762 0012276  52.8466 307.3885 15.13209143 39132
1 47540U 21006EA  21288.17244888  .00001878  00000-0  10924-3 0  9995
2 47540  97.4827 347.3603 0012231  50.9838 309.2480 15.13211492 39228
1 47540U 21006EA  21288.70146019  .00001686  00000-0  98476-4 0  9997
2 47540  97.4824 347.8795 0012200  49.0931 311.1354 15.13211940 39300
1 47540U 21006EA  21289.09821880  .00001572  00000-0  92050-4 0  9992
2 47540  97.4824 348.2689 0012167  47.8414 312.3849 15.13212739 39366
1 47540U 21006EA  21289.16434521  .00001582  00000-0  92632-4 0  9999
2 47540  97.4824 348.3338 0012161  47.6417 312.5842 15.13213025 39378
1 47540U 21006EA  21289.56110337  .00001499  00000-0  87951-4 0  9994
2 47540  97.4824 348.7232 0012125  46.3991 313.8244 15.13214042 39435
1 47540U 21006EA  21290.15624025  .00001322  00000-0  77970-4 0  9990
2 47540  97.4823 349.3072 0012076  44.4408 315.7790 15.13215200 39524
1 47540U 21006EA  21291.08200673  .00001274  00000-0  75284-4 0  9994
2 47540  97.4821 350.2157 0012004  41.5671 318.6470 15.13218218 39662
1 47540U 21006EA  21291.41263675  .00001397  00000-0  82210-4 0  9995
2 47540  97.4821 350.5402 0011983  40.5362 319.6760 15.13220102 39713
1 47540U 21006EA  21291.61101509  .00001343  00000-0  79152-4 0  9996
2 47540  97.4821 350.7349 0011966  39.9344 320.2765 15.13220432 39740
1 47540U 21006EA  21292.14002340  .00001327  00000-0  78272-4 0  9992
2 47540  97.4820 351.2540 0011929  38.2446 321.9629 15.13221912 39822
1 47540U 21006EA  21292.73515733  .00001121  00000-0  66657-4 0  9998
2 47540  97.4819 351.8380 0011879  36.4162 323.7875 15.13222437 39913
1 47540U 21006EA  21293.13191242  .00001325  00000-0  78160-4 0  9996
2 47540  97.4818 352.2273 0011848  35.1218 325.0792 15.13224709 39975
1 47540U 21006EA  21293.72704554  .00001270  00000-0  75040-4 0  9990
2 47540  97.4817 352.8113 0011801  33.2451 326.9520 15.13225849 40067
1 47540U 21006EA  21294.12380046  .00001257  00000-0  74302-4 0  9996
2 47540  97.4816 353.2007 0011768  31.9620 328.2323 15.13226765 40129
1 47540U 21006EA  21294.58668094  .00001233  00000-0  72946-4 0  9994
2 47540  97.4815 353.6549 0011728  30.4890 329.7020 15.13227778 40194
1 47540U 21006EA  21295.44631496  .00001173  00000-0  69582-4 0  9991
2 47540  97.4813 354.4984 0011649  27.6523 332.5325 15.13229605 40323
1 47540U 21006EA  21295.71081764  .00001144  00000-0  67947-4 0  9999
2 47540  97.4812 354.7579 0011623  26.7721 333.4108 15.13230085 40364
1 47540U 21006EA  21296.17369671  .00001147  00000-0  68102-4 0  9993
2 47540  97.4811 355.2121 0011579  25.1959 334.9835 15.13231289 40436
1 47540U 21006EA  21296.70270128  .00001094  00000-0  65148-4 0  9998
2 47540  97.4809 355.7312 0011524  23.4191 336.7562 15.13232283 40510
1 47540U 21006EA  21297.43008162  .00001077  00000-0  64217-4 0  9993
2 47540  97.4808 356.4449 0011454  20.9650 339.2048 15.13233984 40620
1 47540U 21006EA  21297.76070880  .00001056  00000-0  63021-4 0  9994
2 47540  97.4807 356.7693 0011419  19.8448 340.3225 15.13234700 40678
1 47540U 21006EA  21298.15746124  .00001068  00000-0  63676-4 0  9998
2 47540  97.4807 357.1586 0011380  18.4891 341.6751 15.13235709 40733
1 47540U 21006EA  21299.08321529  .00001197  00000-0  70907-4 0  9997
2 47540  97.4806 358.0669 0011292  15.3786 344.7786 15.13238830 40870
1 47540U 21006EA  21299.41384161  .00001328  00000-0  78289-4 0  9992
2 47540  97.4806 358.3913 0011263  14.2880 345.8667 15.13240313 40921
1 47540U 21006EA  21300.14121852  .00001386  00000-0  81576-4 0  9998
2 47540  97.4805 359.1050 0011196  11.8699 348.2794 15.13242504 41032
1 47540U 21006EA  21301.13309409  .00001563  00000-0  91480-4 0  9996
2 47540  97.4804   0.0782 0011106   8.5347 351.6071 15.13246136 41186
1 47540U 21006EA  21301.72821896  .00001677  00000-0  97902-4 0  9991
2 47540  97.4804   0.6621 0011055   6.5240 353.6133 15.13248217 41270
1 47540U 21006EA  21302.12496806  .00001728  00000-0  10078-3 0  9990
2 47540  97.4803   1.0514 0011019   5.1556 354.9787 15.13249640 41337
